C/2020 K4 (PANSTARRS),e,125.5852,264.2669,308.8375,23.95735,0.0084052,0.92701972,14.0062,09/26.0/2024,2000,g 16.5,4.0
# From MPEC 2021-R75
C/2020 K5 (PANSTARRS),h,06/04.8568/2021,67.0747,86.1450,249.6340,1.001031,1.539067,2000,11.0,4.0
# From MPEC 2023-N01
C/2020 K6 (Rankin),h,09/15.3724/2021,103.6382,291.5879,44.3123,1.002957,5.867561,2000,8.0,4.0
# From MPEC 2023-A50
C/2020 K7 (PANSTARRS),e,32.0445,286.1188,358.1602,95.92465,0.0010491,0.93335766,1.8848,09/26.0/2024,2000,g  8.0,4.0
# From MPEC 2021-P47
C/2020 K8 (Catalina-ATLAS),h,09/15.4175/2020,31.4190,181.4238,260.0372,1.000270,0.470973,2000,15.0,3.2
# From MPEC 2021-BE3
P/2020 K9 (Lemmon-PANSTARRS),e,23.1981,166.3142,197.0879,4.205906,0.1142654,0.32058591,151.0561,09/26.0/2024,2000,g 12.5,4.0
# From MPEC 2023-C45
P/2020 M1 (PANSTARRS),e,8.5336,142.6044,72.5634,5.314227,0.0804533,0.47310844,139.8707,09/26.0/2024,2000,g 14.5,4.0
# From MPEC 2022-H30
C/2020 M3 (ATLAS),e,23.4723,71.1667,328.6252,27.25562,0.0069266,0.95333644,9.9121,09/26.0/2024,2000,g 14.5,4.0
# From MPEC 2023-N01
A/2020 M4,h,11/23.5018/2020,160.1124,348.6212,104.5441,1.000508,5.944459,2000,14.5,2.0
# From MPEC 2024-NE4
P/2020 MK4 (PANSTARRS),e,6.7842,0.6844,93.4468,6.220481,0.0635284,0.01413365,300.6830,09/26.0/2024,2000,g  8.0,4.0
# From MPEC 2023-FK0
C/2020 M5 (ATLAS),h,08/19.8457/2021,93.1923,352.0548,126.2549,1.000226,3.000101,2000,9.0,4.0
# From MPEC 2022-GA9
C/2020 N1 (PANSTARRS),h,03/12.8427/2021,29.7533,279.8722,186.7997,1.000702,1.316973,2000,12.5,4.0
# From MPEC 2021-P47
C/2020 N2 (ATLAS),e,161.0384,257.1818,331.2655,102.4431,0.0009506,0.98254974,0.0000,08/24.2808/2020,2000,g 16.0,3.2
# From MPEC 2024-JU4
C/2020 O2 (Amaral),h,08/27.7930/2021,71.7618,256.7928,10.2300,1.000310,4.859719,2000,8.0,3.2
# From MPEC 2023-C45
P/2020 O3 (PANSTARRS),e,8.4446,266.8189,81.4028,4.646608,0.0984011,0.10254227,131.6287,09/26.0/2024,2000,g 12.0,4.0
# From MPEC 2021-BE3
C/2020 P1 (NEOWISE),h,10/20.9625/2020,45.1633,53.4767,8.9114,1.000399,0.340936,2000,14.0,3.2
# From MPEC 2024-JU4
C/2020 P3 (ATLAS),h,04/22.4080/2021,61.8754,19.4754,82.3210,1.003142,6.814146,2000,6.0,4.0
# From MPEC 2022-PB4
C/2020 PV6 (PANSTARRS),e,128.1821,329.1402,71.3219,41.88106,0.0036365,0.94526804,3.9853,09/26.0/2024,2000,g 10.0,4.0
# From MPEC 2022-L66
C/2020 Q1 (Borisov),e,142.9424,52.3977,10.0026,61.94143,0.0020218,0.97870086,0.0000,08/14.8799/2020,2000,g 14.0,4.0
# From MPEC 2023-CD7
C/2020 Q2 (PANSTARRS),e,3.3353,179.8183,118.2762,10.61487,0.0284992,0.48953019,48.5738,09/26.0/2024,2000,g 12.0,3.2
# From MPEC 2024-F34
C/2020 R2 (PANSTARRS),e,53.2246,195.1080,211.8609,429.0647,0.0001109,0.98905384,0.0000,02/25.3278/2022,2000,g  9.0,4.0
# From MPEC 2022-K19
C/2020 R4 (ATLAS),e,164.4218,323.2510,46.5776,98.55539,0.0010074,0.98962290,0.0000,03/02.3823/2021,2000,g 13.5,4.0
# From MPEC 2023-C45
P/2020 R5 (PANSTARRS),e,11.4401,272.9447,82.7522,4.991559,0.0883791,0.31364222,139.7508,09/26.0/2024,2000,g  9.5,6.0
# From MPEC 2021-Y10
C/2020 R6 (Rankin),e,82.8501,12.2034,272.0017,296.0728,0.0001935,0.98940012,0.0000,09/07.2892/2019,2000,g 11.0,4.0
# From MPEC 2024-PC5
C/2020 R7 (ATLAS),h,09/16.1601/2022,114.9031,268.3050,347.8073,1.000006,2.954185,2000,7.0,3.2
# From MPEC 2021-BE3
P/2020 S1 (PANSTARRS),e,13.7188,129.5052,255.1058,5.999528,0.0670700,0.50732487,90.3777,09/26.0/2024,2000,g 14.0,4.0
# From MPEC 2022-ST7
C/2020 S2 (PANSTARRS),e,22.3926,197.7011,202.3867,10.24387,0.0300613,0.82813265,41.2954,09/26.0/2024,2000,g 17.0,4.0
# From MPEC 2024-JU4
C/2020 S3 (Erasmus),e,20.0326,222.5721,350.0521,143.6363,0.0005725,0.99725333,0.0000,12/11.4667/2020,2000,g 13.5,3.2
# From MPEC 2024-N80
C/2020 S4 (PANSTARRS),h,02/09.3712/2023,20.5681,117.6963,21.0228,1.002257,3.369822,2000,8.5,3.2
# From MPEC 2021-BE3
P/2020 S5 (PANSTARRS),e,12.3423,316.0389,53.2640,4.057069,0.1206106,0.33779207,182.0276,09/26.0/2024,2000,g 14.5,4.0
# From MPEC 2021-BE3
P/2020 S7 (PANSTARRS),e,16.0766,328.0906,40.6371,5.035043,0.0872367,0.41000846,122.7946,09/26.0/2024,2000,g 14.5,4.0
# From MPEC 2021-P47
C/2020 S8 (Lemmon),e,108.5321,24.0459,160.1758,245.7962,0.0002558,0.99040990,0.0000,04/10.5841/2021,2000,g 12.5,4.0
# From MPEC 2022-TD3
C/2020 T2 (Palomar),e,27.8378,83.0540,150.3931,279.7689,0.0002106,0.99265072,0.0000,07/10.5988/2021,2000,g 11.0,3.2
# From MPEC 2021-N06
P/2020 T3 (PANSTARRS),e,7.2992,73.9932,357.0604,3.516431,0.1494689,0.59244820,200.7834,09/26.0/2024,2000,g 18.0,3.2
# From MPEC 2021-N06
C/2020 T4 (PANSTARRS),h,07/05.7425/2021,83.8495,50.6185,79.5815,1.000502,2.189281,2000,13.0,3.2
# From MPEC 2021-BE3
C/2020 T5 (Lemmon),e,66.5446,237.8286,90.3741,647.9383,0.0000598,0.99707457,0.0000,10/08.4128/2020,2000,g 16.0,4.0
# From MPEC 2021-N06
P/2020 U2 (PANSTARRS),e,6.4196,342.8489,84.7167,3.777925,0.1342221,0.51140129,183.7605,09/26.0/2024,2000,g 18.0,4.0
# From MPEC 2021-W31
C/2020 U3 (Rankin),e,30.1419,282.6228,124.4401,67.42555,0.0017802,0.96616114,2.3636,09/26.0/2024,2000,g 15.0,4.0
# From MPEC 2024-RQ6
C/2020 U4 (PANSTARRS),h,04/09.7756/2022,167.0087,120.3904,70.1386,1.000887,5.360881,2000,7.0,4.0
# From MPEC 2024-GJ3
C/2020 U5 (PANSTARRS),e,97.2993,107.3147,75.4560,5285,0.0000026,0.99928909,0.0000,04/28.1323/2022,2000,g  8.0,4.0
# From MPEC 2024-RQ6
C/2020 V2 (ZTF),h,05/08.4715/2023,131.6128,212.3776,162.4157,1.000855,2.228261,2000,4.9,4.0
# From MPEC 2023-D72
P/2020 V3 (PANSTARRS),e,23.0282,198.2615,249.6375,8.401018,0.0404768,0.25779874,53.4520,09/26.0/2024,2000,g  8.3,4.0
# From MPEC 2024-F34
P/2020 V4 (Rankin),e,14.2418,203.4866,257.1569,9.388386,0.0342624,0.45136823,39.8891,09/26.0/2024,2000,g  9.0,4.0
# From MPEC 2021-BE3
P/2020 W1 (Rankin),e,10.7795,124.3913,265.3072,7.223324,0.0507690,0.26596088,82.7227,09/26.0/2024,2000,g 10.0,4.0
# From MPEC 2021-BE3
C/2020 W5 (Lemmon),h,11/30.6116/2020,88.6174,75.4659,24.5595,1.001735,3.368261,2000,15.0,4.0
# From MPEC 2024-PC5
P/2020 WJ5 (Lemmon),e,22.2888,177.7857,338.0534,6.015221,0.0668077,0.17185031,79.1033,09/26.0/2024,2000,g  8.5,4.0
# From MPEC 2024-F34
P/2020 X1 (ATLAS),e,31.6958,55.9811,323.5127,4.534486,0.1020733,0.36488814,156.0091,09/26.0/2024,2000,g 13.0,4.0
# From MPEC 2024-A43
C/2020 X2 (ATLAS),e,18.1854,105.3718,347.4924,16.51178,0.0146897,0.76810721,20.6999,09/26.0/2024,2000,g 10.6,4.0
# From MPEC 2021-S45
C/2020 X4 (Leonard),e,80.6414,161.9280,140.3146,40.67415,0.0037995,0.87154506,5.3583,09/26.0/2024,2000,g  9.0,4.0
# From MPEC 2024-RQ6
C/2020 Y2 (ATLAS),e,101.1888,26.5335,266.4122,1511,0.0000168,0.99791912,0.0000,06/18.0748/2022,2000,g  6.5,4.0
# From MPEC 2021-R75
C/2020 Y3 (ATLAS),e,83.1189,191.3954,341.8702,138.4736,0.0006049,0.98561579,0.0000,12/03.2396/2020,2000,g 13.5,4.0
# From MPEC 2023-CD7
C/2021 A1 (Leonard),h,01/03.5025/2022,132.7573,255.9130,225.1474,1.000162,0.616080,2000,8.5,4.0
# From MPEC 2022-F14
C/2021 A2 (NEOWISE),e,107.0293,125.1067,338.7732,228.3200,0.0002857,0.99380825,0.0000,01/22.0843/2021,2000,g 13.5,4.0
# From MPEC 2022-ED3
C/2021 A4 (NEOWISE),e,111.5994,307.0971,204.7327,42.40843,0.0035688,0.97290031,0.0000,03/19.5027/2021,2000,g 16.0,4.0
# From MPEC 2021-BE3
P/2021 A5 (PANSTARRS),e,18.1867,328.8150,61.4438,3.047140,0.1852957,0.13990621,261.6264,09/26.0/2024,2000,g 15.0,4.0
# From MPEC 2024-P23
C/2021 A6 (PANSTARRS),e,75.5773,164.0477,351.6092,9386,0.0000011,0.99915572,0.0000,05/02.8679/2021,2000,g  7.0,4.0
# From MPEC 2022-M88
C/2021 A7 (NEOWISE),e,78.1872,154.4438,355.9850,1809,0.0000128,0.99891388,0.0000,07/15.1274/2021,2000,g 10.0,4.0
# From MPEC 2024-GJ3
C/2021 A9 (PANSTARRS),h,12/02.9030/2023,158.0139,314.8366,211.5394,1.000953,7.760915,2000,6.0,4.0
# From MPEC 2021-N06
C/2021 A10 (NEOWISE),e,151.9700,188.7834,82.5566,89.36850,0.0011666,0.98585036,0.0000,03/14.8664/2021,2000,g 19.0,4.0
# From MPEC 2022-L66
C/2021 B2 (PANSTARRS),e,38.0837,120.4707,335.0495,391.2190,0.0001274,0.99357764,0.0000,05/04.7187/2021,2000,g 14.0,4.0
# From MPEC 2021-N06
C/2021 B3 (NEOWISE),e,119.4736,67.2715,293.5559,34.23598,0.0049202,0.93677495,6.3777,09/26.0/2024,2000,g 13.5,4.0
# From MPEC 2023-KD6
C/2021 C1 (Rankin),e,143.0426,186.8620,336.1154,2518,0.0000078,0.99862074,0.0000,12/06.3135/2020,2000,g 11.5,4.0
# From MPEC 2021-U31
P/2021 C2 (PANSTARRS),e,21.9409,66.4561,78.6973,9.539955,0.0334491,0.48801373,43.8198,09/26.0/2024,2000,g 12.0,4.0
# From MPEC 2024-M41
C/2021 C3 (Catalina),e,122.1833,181.8903,356.9990,60.76052,0.0020810,0.96258678,2.7521,09/26.0/2024,2000,g 14.0,4.0
# From MPEC 2022-M88
C/2021 C4 (ATLAS),e,132.8418,194.2556,320.0873,6754,0.0000018,0.99933432,0.0000,01/16.5959/2021,2000,g  9.0,4.0
# From MPEC 2024-N80
C/2021 C5 (PANSTARRS),e,50.7953,323.6729,270.9093,1741,0.0000136,0.99813777,0.0000,02/10.9792/2023,2000,g  9.0,4.0
# From MPEC 2022-YB4
C/2021 C6 (Lemmon),e,164.6050,332.3423,203.8226,2912,0.0000063,0.99887381,0.0000,11/12.2241/2021,2000,g 12.0,4.0
# From MPEC 2022-F14
C/2021 D1 (SWAN),e,31.3845,311.2129,72.3715,101.8503,0.0009589,0.99110907,0.0000,02/27.6525/2021,2000,g 13.0,4.0
# From MPEC 2023-J29
C/2021 D2 (ZTF),h,02/03.8554/2022,83.7848,305.6485,125.0410,1.001522,2.947358,2000,9.0,4.0
# From MPEC 2022-UY9
A/2021 E2,e,167.4905,190.7868,342.2750,207.6280,0.0003294,0.98900655,0.0000,12/09.6485/2020,2000,g 15.0,2.0
# From MPEC 2024-GJ3
C/2021 E3 (ZTF),h,06/11.6197/2022,112.5282,104.4836,228.8222,1.000306,1.777174,2000,8.5,4.0
# From MPEC 2024-N80
A/2021 E4,e,116.3673,171.1572,48.2685,514.2177,0.0000845,0.99090301,0.0000,04/24.9107/2022,2000,g 13.5,22.0
# From MPEC 2022-QD9
C/2021 F1 (Lemmon-PANSTARRS),e,107.3102,203.4966,146.9055,244.9275,0.0002571,0.99592447,0.0000,04/06.7501/2022,2000,g 13.5,4.0
# From MPEC 2021-J72
C/2021 G1 (Leonard),e,131.5488,270.6996,107.4319,71.79284,0.0016203,0.95228583,1.8844,09/26.0/2024,2000,g 14.0,4.0
# From MPEC 2024-RQ6
C/2021 G2 (ATLAS),h,09/09.2032/2024,48.4730,221.0951,343.2773,1.000279,4.982394,2000,5.5,4.0
# From MPEC 2022-X67
C/2021 G3 (PANSTARRS),e,102.8696,147.3703,10.5810,9057,0.0000011,0.99942799,0.0000,10/17.8463/2021,2000,g 10.5,4.0
# From MPEC 2021-Y10
